TITAN 3C TRANSTAGE R/B  
1 05854U 72010B   24129.59119017  .00000125  00000+0  00000+0 0  9999
2 05854   1.0845 267.6539 0063751 150.6225 209.8537  1.00662650 17157
